[{"OBJECT_NAME":"STARLINK-31843","OBJECT_ID":"2024-088Q","EPOCH":"2026-03-09T11:11:04.807968","MEAN_MOTION":15.3019014,"ECCENTRICITY":0.00015489,"INCLINATION":53.1604,"RA_OF_ASC_NODE":141.2478,"ARG_OF_PERICENTER":87.5994,"MEAN_ANOMALY":272.5184,"EPHEMERIS_TYPE":0,"CLASSIFICATION_TYPE":"U","NORAD_CAT_ID":59722,"ELEMENT_SET_NO":999,"REV_AT_EPOCH":10364,"BSTAR":1.7556851e-5,"MEAN_MOTION_DOT":1.61e-6,"MEAN_MOTION_DDOT":0},{"OBJECT_NAME":"KUIPER-00180","OBJECT_ID":"2026-030E","EPOCH":"2026-03-09T22:29:40.634304","MEAN_MOTION":15.31865817,"ECCENTRICITY":0.00157227,"INCLINATION":51.8823,"RA_OF_ASC_NODE":218.464,"ARG_OF_PERICENTER":75.5448,"MEAN_ANOMALY":284.728,"EPHEMERIS_TYPE":0,"CLASSIFICATION_TYPE":"U","NORAD_CAT_ID":67768,"ELEMENT_SET_NO":999,"REV_AT_EPOCH":512,"BSTAR":0.011360708,"MEAN_MOTION_DOT":0.00373574,"MEAN_MOTION_DDOT":0}]
